ORBCOMM FM06            
1 25118U 97084G   26182.17279042  .00001427  00000+0  42295-3 0  9994
2 25118  45.0147 345.3839 0000277 178.2222 350.8070 14.47598346496413
ORBCOMM FM04            
1 25159U 98007C   26181.98077079  .00000784  00000+0  31356-3 0  9990
2 25159 107.9626 197.8089 0041713 301.1275  58.5777 14.35764911478573
ORBCOMM FM19            
1 25415U 98046C   26180.98236556  .00000792  00000+0  29693-3 0  9994
2 25415  44.9921 182.7397 0004169 336.1347  44.8243 14.39515396458628
ORBCOMM FM20            
1 25416U 98046D   26181.97642910  .00000511  00000+0  21362-3 0  9994
2 25416  44.9921 186.0892 0002391 296.5806  63.4797 14.38081994458778
ORBCOMM FM27            
1 25481U 98053G   26181.93226480  .00000799  00000+0  30133-3 0  9994
2 25481  45.0052 270.0688 0002109 243.3176 116.7457 14.39166005452217
ORBCOMM FM32            
1 25982U 99065C   26182.05447397  .00000745  00000+0  29549-3 0  9990
2 25982  45.0147 107.5991 0004438 117.2967 242.8333 14.37149587389085
ORBCOMM FM109           
1 40086U 14040A   26181.93272244  .00000470  00000+0  13573-3 0  9990
2 40086  47.0042  26.4988 0001928 282.9572  77.1098 14.58860332636354
ORBCOMM FM110           
1 41182U 15081D   26182.00645840  .00000720  00000+0  18839-3 0  9997
2 41182  47.0026 296.1014 0002817 156.9550 203.1463 14.58901502559642
ORBCOMM FM118           
1 41183U 15081E   26182.04076486  .00000459  00000+0  13320-3 0  9995
2 41183  47.0047 296.2733 0002291 109.9356 250.1777 14.58892752559751
ORBCOMM FM112           
1 41184U 15081F   26181.49718880  .00000347  00000+0  10947-3 0  9993
2 41184  46.9971 207.3067 0004130 269.8419  90.1993 14.58917672560897
ORBCOMM FM113           
1 41185U 15081G   26181.47424975  .00000280  00000+0  95535-4 0  9994
2 41185  46.9989 207.7982 0002628 270.1275  89.9309 14.58869516560870
ORBCOMM FM108           
1 41187U 15081J   26182.12135183  .00000612  00000+0  16557-3 0  9994
2 41187  47.0045 116.3155 0003185 272.4139  87.6382 14.58891278562112
ORBCOMM FM117           
1 41188U 15081K   26181.81302233  .00000460  00000+0  13355-3 0  9996
2 41188  47.0006 116.4035 0003686 275.6842  84.3624 14.58877515562111
ORBCOMM FM116           
1 41189U 15081L   26182.13570830  .00000333  00000+0  10650-3 0  9997
2 41189  47.0005 204.6682 0000919 184.8793 175.2084 14.58897279560972
